NORAD_CAT_ID,OBJECT_NAME,OBJECT_TYPE,EPOCH,MEAN_MOTION,ECCENTRICITY,INCLINATION,RA_OF_ASC_NODE,ARG_OF_PERICENTER,MEAN_ANOMALY,BSTAR,MEAN_MOTION_DOT,MEAN_MOTION_DDOT,TLE_LINE0,TLE_LINE1,TLE_LINE2,SEMIMAJOR_AXIS,PERIOD,APOGEE,PERIGEE,DECAYED
52645.0,STARLINK-3973,PAYLOAD,2022-07-15 04:00:00,15.73267475,0.0002344,53.2153,136.0601,12.3016,322.747,-0.001979,-0.0027046,0.0,0 STARLINK-3973,1 52645U 22052AZ  22196.16667824 -.00270460  00000-0 -19790-2 0  9992,2 52645  53.2153 136.0601 0002344  12.3016 322.7470 15.73267475 10032,6727.703,91.529,351.145,347.991,0.0
52645.0,STARLINK-3973,PAYLOAD,2022-07-15 12:00:00,15.7309616,0.0002255,53.2151,134.4097,8.4901,55.463,-0.00057971,-0.00080854,0.0,0 STARLINK-3973,1 52645U 22052AZ  22196.50001157 -.00080854  00000-0 -57971-3 0  9991,2 52645  53.2151 134.4097 0002255   8.4901  55.4630 15.73096160 10096,6728.191,91.539,351.5730000000001,348.539,0.0
52645.0,STARLINK-3973,PAYLOAD,2022-07-15 14:00:01,15.73054412,0.0002202,53.2153,133.9968,9.5728,166.5864,-5.0722e-05,-7.689e-05,0.0,0 STARLINK-3973,1 52645U 22052AZ  22196.58334491 -.00007689  00000-0 -50722-4 0  9992,2 52645  53.2153 133.9968 0002202   9.5728 166.5864 15.73054412  1301,6728.31,91.542,351.657,348.694,0.0
52645.0,STARLINK-3973,PAYLOAD,2022-07-15 20:00:01,15.73057348,0.0002089,53.2152,132.7598,15.2242,137.5094,0.00052944,0.00073888,0.0,0 STARLINK-3973,1 52645U 22052AZ  22196.83334491  .00073888  00000-0  52944-3 0  9999,2 52645  53.2152 132.7598 0002089  15.2242 137.5094 15.73057348 10140,6728.302,91.541,351.57199999999995,348.761,0.0
52645.0,STARLINK-3973,PAYLOAD,2022-07-15 22:00:00,15.73084342,0.0002139,53.2152,132.3481,14.2383,250.6824,0.00027107,0.00037406,0.0,0 STARLINK-3973,1 52645U 22052AZ  22196.91667824  .00037406  00000-0  27107-3 0  9996,2 52645  53.2152 132.3481 0002139  14.2383 250.6824 15.73084342  1308,6728.225,91.54,351.529,348.651,0.0
52645.0,STARLINK-3973,PAYLOAD,2022-07-16 04:00:00,15.73081849,0.0002381,53.2149,131.1127,14.2787,227.2294,0.00049028,0.00068406,0.0,0 STARLINK-3973,1 52645U 22052AZ  22197.16667824  .00068406  00000-0  49028-3 0  9994,2 52645  53.2149 131.1127 0002381  14.2787 227.2294 15.73081849 10192,6728.232,91.54,351.699,348.495,0.0
52645.0,STARLINK-3973,PAYLOAD,2022-07-16 14:00:01,15.73131356,0.0002108,53.2148,129.0493,13.7669,68.7759,0.00047573,0.00066482,0.0,0 STARLINK-3973,1 52645U 22052AZ  22197.58334491  .00066482  00000-0  47573-3 0  9996,2 52645  53.2148 129.0493 0002108  13.7669  68.7759 15.73131356  1309,6728.090999999999,91.537,351.374,348.538,0.0
52645.0,STARLINK-3973,PAYLOAD,2022-07-16 22:00:00,15.73214785,0.0002107,53.215,127.4001,18.0438,153.389,0.00029016,0.00040325,0.0,0 STARLINK-3973,1 52645U 22052AZ  22197.91667824  .00040325  00000-0  29016-3 0  9992,2 52645  53.2150 127.4001 0002107  18.0438 153.3890 15.73214785  1305,6727.853,91.532,351.136,348.3,0.0
52645.0,STARLINK-3973,PAYLOAD,2022-07-17 04:00:01,15.73246496,0.0002407,53.2152,126.164,18.6192,129.5978,-0.0002562,-0.00036499,0.0,0 STARLINK-3973,1 52645U 22052AZ  22198.16668981 -.00036499  00000-0 -25620-3 0  9991,2 52645  53.2152 126.1640 0002407  18.6192 129.5978 15.73246496 10359,6727.763000000001,91.53,351.247,348.0080000000001,0.0
52645.0,STARLINK-3973,PAYLOAD,2022-07-17 12:00:00,15.73236092,0.0002353,53.2148,124.5135,24.7958,212.2699,-0.00057461,-0.00080632,0.0,0 STARLINK-3973,1 52645U 22052AZ  22198.50001157 -.00080632  00000-0 -57461-3 0  9991,2 52645  53.2148 124.5135 0002353  24.7958 212.2699 15.73236092 10400,6727.792,91.531,351.24,348.074,0.0
52645.0,STARLINK-3973,PAYLOAD,2022-07-17 14:00:01,15.73190468,0.0002267,53.2148,124.1006,26.4353,322.881,3.0087e-06,-1.99e-06,0.0,0 STARLINK-3973,1 52645U 22052AZ  22198.58334491 -.00000199  00000-0  30087-5 0  9995,2 52645  53.2148 124.1006 0002267  26.4353 322.8810 15.73190468  1303,6727.922,91.534,351.31300000000016,348.26199999999994,0.0
52645.0,STARLINK-3973,PAYLOAD,2022-07-17 20:00:01,15.73215212,0.0002208,53.2154,122.8615,27.2977,298.6963,-2.7693e-05,-4.509e-05,0.0,0 STARLINK-3973,1 52645U 22052AZ  22198.83334491 -.00004509  00000-0 -27693-4 0  9991,2 52645  53.2154 122.8615 0002208  27.2977 298.6963 15.73215212 10457,6727.852,91.532,351.202,348.231,0.0
52645.0,STARLINK-3973,PAYLOAD,2022-07-17 22:00:00,15.73312514,0.0002288,53.2158,122.4493,26.6953,51.5123,-0.0018305,-0.00251256,0.0,0 STARLINK-3973,1 52645U 22052AZ  22198.91667824 -.00251256  00000-0 -18305-2 0  9990,2 52645  53.2158 122.4493 0002288  26.6953  51.5123 15.73312514  1307,6727.574000000001,91.527,350.97900000000016,347.9,0.0
52645.0,STARLINK-3973,PAYLOAD,2022-07-18 12:00:00,15.73258306,0.0002144,53.2141,119.5646,17.0384,126.8666,0.00019093,0.00026327,0.0,0 STARLINK-3973,1 52645U 22052AZ  22199.50001157  .00026327  00000-0  19093-3 0  9990,2 52645  53.2141 119.5646 0002144  17.0384 126.8666 15.73258306 10563,6727.729,91.53,351.036,348.152,0.0
52645.0,STARLINK-3973,PAYLOAD,2022-07-18 14:00:01,15.73226859,0.0002224,53.2142,119.1516,25.6413,230.4323,-0.00023371,-0.00033333,0.0,0 STARLINK-3973,1 52645U 22052AZ  22199.58334491 -.00033333  00000-0 -23371-3 0  9999,2 52645  53.2142 119.1516 0002224  25.6413 230.4323 15.73226859  1305,6727.819,91.532,351.18,348.18699999999984,0.0
52645.0,STARLINK-3973,PAYLOAD,2022-07-18 20:00:01,15.73236477,0.0002126,53.2152,117.9123,28.6404,204.141,-0.00054375,-0.00076371,0.0,0 STARLINK-3973,1 52645U 22052AZ  22199.83334491 -.00076371  00000-0 -54375-3 0  9994,2 52645  53.2152 117.9123 0002126  28.6404 204.1410 15.73236477 10616,6727.791,91.531,351.087,348.226,0.0
52645.0,STARLINK-3973,PAYLOAD,2022-07-18 22:00:00,15.733021300000004,0.0002196,53.2157,117.5002,25.6018,319.4008,-0.0019575,-0.00267994,0.0,0 STARLINK-3973,1 52645U 22052AZ  22199.91667824 -.00267994  00000-0 -19575-2 0  9997,2 52645  53.2157 117.5002 0002196  25.6018 319.4008 15.73302130  1307,6727.604,91.527,350.946,347.992,0.0
52645.0,STARLINK-3973,PAYLOAD,2022-07-19 04:00:00,15.73203354,0.0002522,53.2147,116.2662,28.3238,293.3999,0.00044786,0.00062719,0.0,0 STARLINK-3973,1 52645U 22052AZ  22200.16667824  .00062719  00000-0  44786-3 0  9996,2 52645  53.2147 116.2662 0002522  28.3238 293.3999 15.73203354 10667,6727.886,91.533,351.44699999999995,348.05400000000014,0.0
52645.0,STARLINK-3973,PAYLOAD,2022-07-19 12:00:00,15.73215849,0.0002233,53.2142,114.6156,25.4981,25.1911,0.0001379,0.0001879,0.0,0 STARLINK-3973,1 52645U 22052AZ  22200.50001157  .00018790  00000-0  13790-3 0  9996,2 52645  53.2142 114.6156 0002233  25.4981  25.1911 15.73215849 10728,6727.85,91.532,351.217,348.213,0.0
52645.0,STARLINK-3973,PAYLOAD,2022-07-19 14:00:01,15.73206479,0.0002043,53.2174,114.1984,38.3502,124.4478,-1.5162e-05,-2.749e-05,0.0,0 STARLINK-3973,1 52645U 22052AZ  22200.58334491 -.00002749  00000-0 -15162-4 0  9999,2 52645  53.2174 114.1984 0002043  38.3502 124.4478 15.73206479  1302,6727.877,91.533,351.116,348.367,0.0
52645.0,STARLINK-3973,PAYLOAD,2022-07-19 22:00:00,15.7320354,0.0002139,53.2177,112.5497,37.3176,214.4158,1.2006e-05,1.064e-05,0.0,0 STARLINK-3973,1 52645U 22052AZ  22200.91667824  .00001064  00000-0  12006-4 0  9996,2 52645  53.2177 112.5497 0002139  37.3176 214.4158 15.73203540  1309,6727.885,91.533,351.189,348.311,0.0
52645.0,STARLINK-3973,PAYLOAD,2022-07-20 12:00:00,15.7316385,0.0002070999999999,53.2143,109.6656,22.7686,294.7874,0.0003393999999999,0.00047209,0.0,0 STARLINK-3973,1 52645U 22052AZ  22201.50001157  .00047209  00000-0  33940-3 0  9993,2 52645  53.2143 109.6656 0002071  22.7686 294.7874 15.73163850 10872,6727.998000000001,91.535,351.25699999999995,348.47,0.0
52645.0,STARLINK-3973,PAYLOAD,2022-07-20 14:00:01,15.73143951,0.0001994,53.2144,109.2528,22.2439,47.5443,0.00076233,0.00107491,0.0,0 STARLINK-3973,1 52645U 22052AZ  22201.58334491  .00107491  00000-0  76233-3 0  9993,2 52645  53.2144 109.2528 0001994  22.2439  47.5443 15.73143951  1305,6728.055,91.536,351.26199999999994,348.57800000000015,0.0
52645.0,STARLINK-3973,PAYLOAD,2022-07-20 22:00:01,15.73287718,0.0002181,53.2157,107.6023,26.8047,131.9389,-0.0025654,-0.00347559,0.0,0 STARLINK-3973,1 52645U 22052AZ  22201.91668981 -.00347559  00000-0 -25654-2 0  9997,2 52645  53.2157 107.6023 0002181  26.8047 131.9389 15.73287718 10942,6727.645,91.528,350.977,348.043,0.0
52645.0,STARLINK-3973,PAYLOAD,2022-07-21 04:00:00,15.73155014,0.0002316,53.214,106.3692,23.8353,111.5319,0.00012836,0.00017398,0.0,0 STARLINK-3973,1 52645U 22052AZ  22202.16667824  .00017398  00000-0  12836-3 0  9992,2 52645  53.2140 106.3692 0002316  23.8353 111.5319 15.73155014 10983,6728.023,91.536,351.44699999999995,348.33,0.0
52645.0,STARLINK-3973,PAYLOAD,2022-07-21 14:00:01,15.73115859,0.0002017,53.2139,104.305,22.0787,314.4762,0.00069212,0.00097298,0.0,0 STARLINK-3973,1 52645U 22052AZ  22202.58335648  .00097298  00000-0  69212-3 0  9991,2 52645  53.2139 104.3050 0002017  22.0787 314.4762 15.73115859  1302,6728.135,91.538,351.357,348.64300000000014,0.0
52645.0,STARLINK-3973,PAYLOAD,2022-07-21 22:00:00,15.73193756,0.0002133999999999,53.2138,102.6571,22.6895,42.6653,9.6999e-05,0.0001301,0.0,0 STARLINK-3973,1 52645U 22052AZ  22202.91667824  .00013010  00000-0  96999-4 0  9995,2 52645  53.2138 102.6571 0002134  22.6895  42.6653 15.73193756  1307,6727.913000000001,91.534,351.214,348.342,0.0
52645.0,STARLINK-3973,PAYLOAD,2022-07-22 06:00:00,15.73237422,0.0002255999999999,53.2132,101.0081,22.8383,131.4368,5.0921e-06,9.4e-07,0.0,0 STARLINK-3973,1 52645U 22052AZ  22203.25001157  .00000094  00000-0  50921-5 0  9998,2 52645  53.2132 101.0081 0002256  22.8383 131.4368 15.73237422  1308,6727.788000000001,91.531,351.171,348.136,0.0
52645.0,STARLINK-3973,PAYLOAD,2022-07-22 12:00:00,15.73215784,0.0002026,53.2136,99.7692,25.7828,105.233,0.00012762,0.00017339,0.0,0 STARLINK-3973,1 52645U 22052AZ  22203.50001157  .00017339  00000-0  12762-3 0  9995,2 52645  53.2136  99.7692 0002026  25.7828 105.2330 15.73215784 11197,6727.85,91.532,351.07800000000015,348.352,0.0
